{
"type": "FeatureCollection",
"name": "Alcaldía Iztacalco",
"crs": { "type": "name", "properties": { "name": "urn:ogc:def:crs:EPSG::32614" } },
"features": [
{ "type": "Feature", "properties": { "ID": 2.0, "ENTIDAD": 9, "MUNICIPIO": 6, "NOMBRE": "IZTACALCO", "CONTROL": 2.0, "GEOMETRY1_": null }, "geometry": { "type": "MultiPolygon", "coordinates": [ [ [ [ 494116.361649208003655, 2147539.020704039838165 ], [ 494124.321271280990914, 2147498.301882530096918 ], [ 494119.294476377021056, 2147364.693135720212013 ], [ 494110.305204414005857, 2147283.03541278000921 ], [ 494103.593853419995867, 2147222.070197429973632 ], [ 494090.808010768028907, 2147105.924783519934863 ], [ 494084.575706080999225, 2147049.311103289946914 ], [ 494082.056649881997146, 2147026.428326500114053 ], [ 494073.003855424991343, 2146942.660578770097345 ], [ 494063.168959095026366, 2146851.655848870053887 ], [ 494059.199253168015275, 2146812.446714169811457 ], [ 494052.682988265005406, 2146746.662665630225092 ], [ 494049.061032373982016, 2146710.097783859819174 ], [ 494043.743247764010448, 2146656.412932000122964 ], [ 494039.660987571987789, 2146615.201121100224555 ], [ 494037.256957112986129, 2146592.178482609800994 ], [ 494031.189870278001763, 2146533.376671609934419 ], [ 494026.216299459978472, 2146485.20265035983175 ], [ 494025.388987065991387, 2146477.410454810131341 ], [ 494024.288031122996472, 2146467.519311309792101 ], [ 494023.345728054002393, 2146457.697323250118643 ], [ 494022.933450998971239, 2146453.719720920082182 ], [ 494006.578560695983469, 2146292.707955699879676 ], [ 493998.349746869003866, 2146211.295478079933673 ], [ 493992.923647756979335, 2146157.787757629994303 ], [ 493989.809234530024696, 2146127.075979440007359 ], [ 493979.636126520985272, 2146034.02289697015658 ], [ 493975.565542368975002, 2145996.90320678986609 ], [ 493972.732737843005452, 2145967.054627710022032 ], [ 493962.565111314004753, 2145867.741634250152856 ], [ 493957.254557684005704, 2145816.180179560091347 ], [ 493949.454569226014428, 2145731.501805670093745 ], [ 493943.206365777004976, 2145682.020604019984603 ], [ 493937.553949970984831, 2145628.040247340220958 ], [ 493931.817434029013384, 2145570.984439500141889 ], [ 493926.845508068974596, 2145515.818843780085444 ], [ 493921.061419038975146, 2145464.004326359834522 ], [ 493914.533347573014908, 2145402.150849500205368 ], [ 493912.651955004024785, 2145384.324738089926541 ], [ 493891.727135479974095, 2145186.061990899965167 ], [ 493880.557308414019644, 2145081.56610930012539 ], [ 493873.723267983004916, 2144921.77514939988032 ], [ 493872.694452647003345, 2144903.693077300209552 ], [ 493871.726272789994255, 2144886.563097060192376 ], [ 493870.524837039993145, 2144867.8973228498362 ], [ 493865.469729610020295, 2144829.785863810218871 ], [ 493860.337774513987824, 2144772.171670690178871 ], [ 493848.275100034021307, 2144655.289353230036795 ], [ 493843.692070949007757, 2144604.638747320044786 ], [ 493826.756272297992837, 2144546.790569469798356 ], [ 493800.546439179976005, 2144457.264759739860892 ], [ 493792.399517338024452, 2144405.272152150049806 ], [ 493778.633541587973014, 2144317.419465090148151 ], [ 493764.988497650017962, 2144237.067827240098268 ], [ 493757.522424875001889, 2144193.46235084021464 ], [ 493748.911465279990807, 2144136.527950009796768 ], [ 493738.1375554149854, 2144060.485453750006855 ], [ 493723.126952346996404, 2143972.32489993982017 ], [ 493718.573290363012347, 2143947.37875840999186 ], [ 493708.980199391022325, 2143887.031437479890883 ], [ 493694.415118789998814, 2143795.406788450200111 ], [ 493688.437511028023437, 2143757.802979149855673 ], [ 493672.730363711016253, 2143658.993995650205761 ], [ 493667.104009645001497, 2143623.600224849767983 ], [ 493659.54888341401238, 2143558.200520710088313 ], [ 493651.172980698989704, 2143511.509496490005404 ], [ 493644.581787546980195, 2143463.031817120034248 ], [ 493637.227414008986671, 2143412.53389177005738 ], [ 493629.598993482999504, 2143360.154255580157042 ], [ 493617.872305646014865, 2143268.277910210192204 ], [ 493612.310185088019352, 2143222.86136707989499 ], [ 493603.256009988021106, 2143172.150134860072285 ], [ 493313.622487507003825, 2143224.978639119770378 ], [ 493082.962178313988261, 2143267.441196050029248 ], [ 493027.762974697980098, 2143278.047319709789008 ], [ 492988.335433239000849, 2143288.428852700162679 ], [ 492898.340041575022042, 2143334.026714030187577 ], [ 492755.479870318027679, 2143414.218389729969203 ], [ 492705.374309908016585, 2143442.319373779930174 ], [ 492652.525751571985893, 2143471.958728829864413 ], [ 492601.695792889979202, 2143500.465981250163168 ], [ 492551.599309624987654, 2143528.561874529812485 ], [ 492503.39190399798099, 2143555.598305739928037 ], [ 492465.101648444018792, 2143576.063313399907202 ], [ 492426.811392894014716, 2143596.528321059886366 ], [ 492380.640924595005345, 2143621.205069070216268 ], [ 492330.181225110020023, 2143648.174284129869193 ], [ 492283.530099363997579, 2143673.107929320074618 ], [ 492241.258984574989881, 2143695.700588370207697 ], [ 492193.094252721988596, 2143721.443211209960282 ], [ 492142.782454564992804, 2143748.333377410192043 ], [ 492035.514921056979802, 2143807.925764769781381 ], [ 492023.776604451995809, 2143814.446976619772613 ], [ 491987.333110436971765, 2143834.69312884984538 ], [ 491980.900878040993121, 2143838.266550110187382 ], [ 491937.780050350993406, 2143862.222289409954101 ], [ 491886.639655222010333, 2143890.633292620070279 ], [ 491880.746381426986773, 2143893.907295890152454 ], [ 491825.340970056015067, 2143923.659886879846454 ], [ 491772.97798236698145, 2143951.782426119782031 ], [ 491767.546164181025233, 2143954.693509050179273 ], [ 491722.946362848975696, 2143978.612365500070155 ], [ 491717.484695008024573, 2143981.534619740210474 ], [ 491667.888042427017353, 2144008.187113619875163 ], [ 491662.392222898022737, 2144011.14186456007883 ], [ 491606.750362012011465, 2144041.089614780154079 ], [ 491600.725826482987031, 2144044.387913700193167 ], [ 491593.43829589599045, 2144048.377674280200154 ], [ 491558.49770329502644, 2144067.506901029963046 ], [ 491551.686313450976741, 2144071.247052039951086 ], [ 491519.965746473986655, 2144088.646302879787982 ], [ 491503.608810952981003, 2144097.349094689823687 ], [ 491482.607794588024262, 2144108.208435929846019 ], [ 491449.367560632992536, 2144125.342715490143746 ], [ 491411.381173959001899, 2144147.671997390221804 ], [ 491396.016276747977827, 2144156.703841470181942 ], [ 491376.452660653972998, 2144167.528115860186517 ], [ 491348.806194171018433, 2144182.824518019799143 ], [ 491342.384626985993236, 2144186.805549529846758 ], [ 491304.694989920011722, 2144206.839009909890592 ], [ 491267.232799536024686, 2144227.806050790008157 ], [ 491260.211321482027415, 2144231.260437690187246 ], [ 491221.218328137998469, 2144252.667497950140387 ], [ 491215.600058101990726, 2144255.751914780121297 ], [ 491178.384954223001841, 2144276.182917980011553 ], [ 491175.924410948005971, 2144262.191695380024612 ], [ 491163.861049531027675, 2144193.596610500011593 ], [ 491156.504393111972604, 2144149.895801560021937 ], [ 491148.043825704022311, 2144101.064299679826945 ], [ 491147.009575287986081, 2144095.47660967009142 ], [ 491139.959558859991375, 2144057.38785886997357 ], [ 491138.904131332004908, 2144051.685756400227547 ], [ 491126.052173282019794, 2143978.048997879959643 ], [ 491116.787341910006944, 2143920.385215200018138 ], [ 491090.84697687800508, 2143946.88943151012063 ], [ 490916.182015230006073, 2143989.123975920025259 ], [ 490891.535626936994959, 2144000.58684511994943 ], [ 490880.233160600997508, 2144009.255732640158385 ], [ 490719.594894169014879, 2144057.882408100180328 ], [ 490712.587833117984701, 2144060.003509699832648 ], [ 490698.810010467015672, 2144064.393239569850266 ], [ 490673.183620825002436, 2144023.459318819921464 ], [ 490654.922743207018357, 2143993.970001690089703 ], [ 490637.868071629025508, 2143966.705010150093585 ], [ 490618.623347243992612, 2143935.757032060064375 ], [ 490599.50920531200245, 2143905.052797629963607 ], [ 490581.280547632020898, 2143875.751421300228685 ], [ 490561.67984155198792, 2143844.188338180072606 ], [ 490524.807532243023161, 2143783.407426610123366 ], [ 490506.551927727996372, 2143753.31288798013702 ], [ 490501.309235453023575, 2143744.672453800216317 ], [ 490487.985100759018678, 2143722.712876019999385 ], [ 490469.897968670993578, 2143692.887382199987769 ], [ 490451.402576398977544, 2143662.474532600026578 ], [ 490427.923107695998624, 2143624.316321909893304 ], [ 490383.311503855977207, 2143549.613730359822512 ], [ 490349.669452144997194, 2143493.279767190106213 ], [ 490313.749966692004818, 2143433.132217700127512 ], [ 490308.453627113020048, 2143424.263442359864712 ], [ 490247.567894481006078, 2143322.30965405004099 ], [ 490236.755386843986344, 2143304.33955910988152 ], [ 490213.96509142202558, 2143266.462705169804394 ], [ 490203.388464328018017, 2143248.884637299925089 ], [ 490174.781860831019003, 2143201.341236819978803 ], [ 490130.890844079025555, 2143128.395555349998176 ], [ 490093.633990698028356, 2143062.935643 ], [ 490071.20447899698047, 2143023.48935313988477 ], [ 490053.866602052992675, 2142993.031660890206695 ], [ 490034.499424580018967, 2142959.036811950150877 ], [ 490015.166658620000817, 2142925.069338859990239 ], [ 489996.594127450021915, 2142892.437590550165623 ], [ 489958.750782841991168, 2142825.947219119872898 ], [ 489938.937056729977485, 2142835.793433549813926 ], [ 489880.233846543997061, 2142848.803912180010229 ], [ 489843.139277657028288, 2142853.500971890054643 ], [ 489804.050085800990928, 2142857.720828690100461 ], [ 489776.634592342015821, 2142860.680456430185586 ], [ 489741.92841849202523, 2142864.427146430127323 ], [ 489706.411978713993449, 2142868.261308330111206 ], [ 489671.028969905979466, 2142871.709517249837518 ], [ 489627.631725450977683, 2142876.765996519941837 ], [ 489589.028240381972864, 2142880.985459280200303 ], [ 489550.424755316984374, 2142885.204922049771994 ], [ 489413.123009960982017, 2142899.194190429989249 ], [ 489385.917379295977298, 2142902.267054869793355 ], [ 489371.591317219019402, 2142903.368999470025301 ], [ 489362.963596960995346, 2142904.180152839981019 ], [ 489333.166024027974345, 2142907.564800620079041 ], [ 489181.295392972999252, 2142928.877481299918145 ], [ 489144.118178013013676, 2142934.094725119881332 ], [ 489137.752134050999302, 2142935.102850229945034 ], [ 489105.355503816972487, 2142939.534463480114937 ], [ 489055.373663026024587, 2142946.417473370209336 ], [ 488998.444046056014486, 2142954.537823580205441 ], [ 488966.625601154984906, 2142958.955527639947832 ], [ 488927.040410566027276, 2142964.451574279926717 ], [ 488905.482765680993907, 2142966.944465409964323 ], [ 488899.632122326991521, 2142967.453996879979968 ], [ 488880.176084663020447, 2142969.148419700097293 ], [ 488866.859545886982232, 2142970.431267300155014 ], [ 488835.297596935997717, 2142975.615345269907266 ], [ 488793.935764103021938, 2142981.709870419930667 ], [ 488773.679667031974532, 2142984.085398950148374 ], [ 488746.305823801027145, 2142987.031839659903198 ], [ 488722.530702880001627, 2142989.269844419788569 ], [ 488661.100275960983709, 2142994.919837339781225 ], [ 488605.11788387701381, 2143000.068753509782255 ], [ 488587.229226995026693, 2143002.19024094985798 ], [ 488580.428073715011124, 2143002.996816960163414 ], [ 488572.512198430020362, 2143004.035134459845722 ], [ 488565.798196178977378, 2143004.929293420165777 ], [ 488537.534607718000188, 2143008.693388210143894 ], [ 488505.63997948798351, 2143012.782443920150399 ], [ 488456.784015608020127, 2143019.920891679823399 ], [ 488385.66051083401544, 2143033.301013169810176 ], [ 488357.912529841996729, 2143037.779736630152911 ], [ 488333.374722369015217, 2143041.572824439965189 ], [ 488308.565594926010817, 2143045.817819740157574 ], [ 488285.947394998976961, 2143049.395426370203495 ], [ 488273.015489601006266, 2143051.372608030214906 ], [ 488238.879889176983852, 2143056.303191099781543 ], [ 488230.978980036976282, 2143057.494451710022986 ], [ 488201.925632775994018, 2143061.874973969999701 ], [ 488165.886025947984308, 2143068.107048910111189 ], [ 488156.410389260970987, 2143069.631220099981874 ], [ 488128.547330360976048, 2143073.939607029780746 ], [ 488093.158944091992453, 2143078.446976909879595 ], [ 488057.437931346008554, 2143082.481814910192043 ], [ 488019.386182783986442, 2143086.669978249818087 ], [ 487984.415484100987669, 2143091.314886270090938 ], [ 487950.171636519022286, 2143096.111121640074998 ], [ 487919.666170837997925, 2143100.352920140139759 ], [ 487885.815713524003513, 2143105.567615760024637 ], [ 487850.870795933995396, 2143108.11089444020763 ], [ 487814.734215995005798, 2143112.052439460065216 ], [ 487780.473546702007297, 2143116.906080699991435 ], [ 487746.613551409973297, 2143119.130213810130954 ], [ 487712.425840548996348, 2143122.060343699995428 ], [ 487677.063282151008025, 2143125.363267260137945 ], [ 487646.713644409028348, 2143123.692300099879503 ], [ 487638.666527259978466, 2143123.249248079955578 ], [ 487629.386403378972318, 2143123.80491812992841 ], [ 487600.851603904971853, 2143125.513508849777281 ], [ 487566.679480190970935, 2143130.136198840104043 ], [ 487527.694785378989764, 2143132.904364840127528 ], [ 487349.657901477999985, 2143138.838050430174917 ], [ 487344.23078997398261, 2143139.014372020028532 ], [ 487307.649168169009499, 2143141.548195790033787 ], [ 487280.688177670002915, 2143143.640606 ], [ 487151.789885036996566, 2143153.036578829865903 ], [ 487147.985432417015545, 2143038.907175450120121 ], [ 487139.352837771992199, 2142897.429751920048147 ], [ 487142.794678666978143, 2142631.87257880019024 ], [ 487147.951007295981981, 2142397.901565569918603 ], [ 487114.591545136005152, 2142403.664641549810767 ], [ 487063.464554935984779, 2142412.850880110170692 ], [ 487023.457287767028902, 2142421.175567930098623 ], [ 486981.368615211977158, 2142429.568877529818565 ], [ 486965.752097153977957, 2142432.895192610099912 ], [ 486927.9913666099892, 2142440.747025350108743 ], [ 486914.632218429003842, 2142443.163816149812192 ], [ 486869.427958842017688, 2142451.534976730123162 ], [ 486806.408014639979228, 2142464.337437579873949 ], [ 486776.156624520022888, 2142470.328387749847025 ], [ 486770.42384232499171, 2142471.454105400014669 ], [ 486727.779831096995622, 2142479.827717979904264 ], [ 486700.602444485994056, 2142485.164582579862326 ], [ 486682.729174433974549, 2142488.674266850110143 ], [ 486641.815800030017272, 2142496.708220679778606 ], [ 486632.341011754004285, 2142498.568737260065973 ], [ 486615.874638702021912, 2142501.802156229969114 ], [ 486597.310603155987337, 2142505.471860290039331 ], [ 486549.902703456988093, 2142514.754396149888635 ], [ 486514.594342150026932, 2142521.667824749834836 ], [ 486441.856993179011624, 2142536.442311319988221 ], [ 486401.604140145005658, 2142544.618513020221144 ], [ 486378.594120357010979, 2142548.023374049924314 ], [ 486340.049912125978153, 2142552.687671069987118 ], [ 486327.042136369971558, 2142554.041503139771521 ], [ 486288.82452220498817, 2142558.019141789991409 ], [ 486260.382917153998278, 2142561.543970790226012 ], [ 486236.771652001014445, 2142564.470002850051969 ], [ 486203.391000967996661, 2142568.742413229774684 ], [ 486184.758442120975815, 2142571.07009949022904 ], [ 486137.26604016701458, 2142576.968676370102912 ], [ 486090.476560698007233, 2142582.856721569783986 ], [ 486045.665862747002393, 2142586.443898070137948 ], [ 485998.104542723973282, 2142590.836679370142519 ], [ 485945.528784518013708, 2142594.884568119887263 ], [ 485911.927040894981474, 2142596.159732469823211 ], [ 485787.34765948401764, 2142583.314091430045664 ], [ 485762.141654166975059, 2142578.72435843013227 ], [ 485777.811063473985996, 2142662.191020439844579 ], [ 485808.805252225021832, 2142809.607118859887123 ], [ 485840.186500669980887, 2142958.366439590230584 ], [ 485854.706758580985479, 2143036.124678399879485 ], [ 485869.636155025975313, 2143110.939707309938967 ], [ 485880.427718301012646, 2143169.694045229814947 ], [ 485895.234621760027949, 2143244.256663780193776 ], [ 485921.012676214973908, 2143385.009910630062222 ], [ 485949.497985464986414, 2143519.307082970160991 ], [ 485966.441233885008842, 2143600.058941789902747 ], [ 485977.323452371987514, 2143651.923811450134963 ], [ 485987.201744412013795, 2143699.003947719931602 ], [ 486011.76422975002788, 2143816.071545610204339 ], [ 486030.90941424499033, 2143907.390272799879313 ], [ 486053.874110743985511, 2144016.92731360020116 ], [ 486075.260443607985508, 2144122.524114530067891 ], [ 486088.293605401995592, 2144121.196291700005531 ], [ 486121.843398331024218, 2144269.111826450098306 ], [ 486128.855670602002647, 2144306.783906450029463 ], [ 486131.165082685998641, 2144319.190777350217104 ], [ 486142.532705302000977, 2144371.86076213978231 ], [ 486167.783050430007279, 2144492.758958769962192 ], [ 486194.14780062698992, 2144608.567945550195873 ], [ 486203.714793391001876, 2144656.033879559952766 ], [ 486226.430693160975352, 2144714.954114350024611 ], [ 486242.83118448901223, 2144751.723384240176529 ], [ 486245.972931005991995, 2144836.193632480222732 ], [ 486248.337950445013121, 2144960.407995999790728 ], [ 486182.492229235998821, 2144962.157158279791474 ], [ 486146.512476767995395, 2144962.157159119844437 ], [ 486091.31764339300571, 2144965.13489888003096 ], [ 486036.338431452983059, 2144967.916867639869452 ], [ 485978.495118336984888, 2144969.518794879782945 ], [ 485921.175607850018423, 2144971.238638270180672 ], [ 485853.734522273007315, 2144974.841818809974939 ], [ 485793.968840649991762, 2144978.03492490015924 ], [ 485734.203159030992538, 2144981.228031000122428 ], [ 485682.061672967975028, 2144984.013798560015857 ], [ 485599.839891560026444, 2144988.406668609939516 ], [ 485613.229916224023327, 2145084.792532209772617 ], [ 485621.380030305997934, 2145143.459771770052612 ], [ 485635.442266299971379, 2145244.684436759911478 ], [ 485659.763917298987508, 2145413.088757319841534 ], [ 485663.269337153004017, 2145437.360458650160581 ], [ 485668.253156884980854, 2145472.116812909953296 ], [ 485680.865790460025892, 2145471.342940629925579 ], [ 485692.343958191981073, 2145470.638675679918379 ], [ 485901.289939375012182, 2145457.818395049776882 ], [ 485944.87379254901316, 2145455.070106610190123 ], [ 485959.002072684001178, 2145454.184257039800286 ], [ 486008.691170122008771, 2145451.150321680121124 ], [ 486085.948531339003239, 2145445.719163539819419 ], [ 486139.632443774025887, 2145441.894585759844631 ], [ 486180.758441045007203, 2145438.964665629900992 ], [ 486234.973373949993402, 2145436.262944940011948 ], [ 486292.044270046986639, 2145439.258293190039694 ], [ 486343.702043938974384, 2145447.865089610219002 ], [ 486456.380856876028702, 2145480.044098889920861 ], [ 486479.074428604973946, 2145486.524968159850687 ], [ 486485.250497860019095, 2145488.4825614602305 ], [ 486569.52040953800315, 2145515.193112790118903 ], [ 486646.472943165979814, 2145539.963240730110556 ], [ 486786.568044797983021, 2145570.200822940096259 ], [ 486804.355155616009142, 2145574.039923809934407 ], [ 487058.394227124983445, 2145622.49277839018032 ], [ 487159.815119514008984, 2145641.67841354990378 ], [ 487163.205999622005038, 2145632.130647670011967 ], [ 487174.624628578021657, 2145613.863862719852477 ], [ 487197.130651318992022, 2145613.968809019774199 ], [ 487230.165969348978251, 2145608.095862609799951 ], [ 487244.816582296974957, 2145605.491308759897947 ], [ 487284.025014774990268, 2145613.968807130120695 ], [ 487293.989561653987039, 2145638.571380250155926 ], [ 487293.438549074984621, 2145655.790535870008171 ], [ 487293.065461463993415, 2145667.44953212980181 ], [ 487355.986316666007042, 2145678.766579459886998 ], [ 487452.546768867003266, 2145697.318161780014634 ], [ 487511.085191885998938, 2145706.544751729816198 ], [ 487557.022484768996947, 2145709.702924420125782 ], [ 487694.26402112597134, 2145709.511246290057898 ], [ 487896.484441318025347, 2145710.85299316002056 ], [ 487950.921028363984078, 2145716.411658740136772 ], [ 487995.088946518022567, 2145724.452468039933592 ], [ 488040.768802426988259, 2145732.558160129934549 ], [ 488042.646175873989705, 2145726.484304159879684 ], [ 488047.061525165976491, 2145712.199348940048367 ], [ 488063.733331341005396, 2145706.610549259930849 ], [ 488082.263283399981447, 2145703.151698430068791 ], [ 488119.36670477601001, 2145725.507049739826471 ], [ 488214.766262522025499, 2145746.033592760097235 ], [ 488335.838653657003306, 2145772.084003330208361 ], [ 488636.149123687006067, 2145837.735328610055149 ], [ 488757.249209821980912, 2145864.794320879969746 ], [ 488797.615905194019433, 2145873.666121620219201 ], [ 488873.352869478985667, 2145891.263541279826313 ], [ 489091.214530075027142, 2145941.883514119777828 ], [ 489143.172561220009811, 2145953.955918780062348 ], [ 489133.812902436999138, 2145963.209218529984355 ], [ 489121.420325017999858, 2145975.460972169879824 ], [ 489113.948513926006854, 2145982.8478768998757 ], [ 489174.16257076698821, 2145999.265833599958569 ], [ 489183.017253633996006, 2146001.680150249972939 ], [ 489299.878991902980488, 2146029.394395359791815 ], [ 489351.61225155700231, 2146043.251518039964139 ], [ 489410.27407259301981, 2146049.256270550191402 ], [ 489492.493002988980152, 2146064.73005711985752 ], [ 489584.41191953397356, 2146081.127651779912412 ], [ 489590.34650350100128, 2146082.160462719853967 ], [ 489696.68269305001013, 2146100.666423860006034 ], [ 489708.680423635989428, 2146101.964406750164926 ], [ 489716.747445070010144, 2146102.837143119890243 ], [ 489762.221528380003292, 2146106.877304339781404 ], [ 489800.155646446975879, 2146107.151803609915078 ], [ 489812.352379061980173, 2146107.199396799784154 ], [ 489871.762783019978087, 2146104.46703182021156 ], [ 489894.619115779991262, 2146103.415838109795004 ], [ 490091.152080047992058, 2146074.844046560116112 ], [ 490134.544316507992335, 2146068.502103299833834 ], [ 490155.240354656998534, 2146065.477297239936888 ], [ 490228.255194297002163, 2146055.203850800171494 ], [ 490264.657288298010826, 2146050.081947300117463 ], [ 490339.15977325901622, 2146039.222727300133556 ], [ 490351.874680762994103, 2146038.191788599826396 ], [ 490423.531775630021002, 2146028.226048689801246 ], [ 490509.723061739001423, 2146015.776347199920565 ], [ 490520.974445194995496, 2146014.151167070027441 ], [ 490814.412325532990508, 2145966.673584130126983 ], [ 491016.951491612999234, 2145937.040684579871595 ], [ 491219.490657692018431, 2145907.40778501983732 ], [ 491437.255700387991965, 2145876.267239610198885 ], [ 491472.334105952992104, 2145870.475590609945357 ], [ 491494.331097558024339, 2145867.655858939979225 ], [ 491530.511351232999004, 2145863.018015319947153 ], [ 491580.785035818000324, 2145856.721388520207256 ], [ 491617.915247460012324, 2145853.87224252987653 ], [ 491657.81421278801281, 2145859.572094370145351 ], [ 491701.108956323005259, 2145868.89031059993431 ], [ 491713.919369039009325, 2145867.722719249781221 ], [ 491729.776433434977662, 2145867.975775919854641 ], [ 491741.373517993022688, 2145867.605811870191246 ], [ 491764.466539222979918, 2145867.330894620157778 ], [ 491789.071603586024139, 2145872.554315960034728 ], [ 491800.553720404976048, 2145878.313741359859705 ], [ 491816.796422848012298, 2145886.548739669844508 ], [ 491820.030537875019945, 2145890.157821159809828 ], [ 491827.422514275996946, 2145902.932636280078441 ], [ 491883.425171456008684, 2145995.624420010019094 ], [ 491893.482842352008447, 2146012.387205 ], [ 491895.714752528001554, 2146016.87873318977654 ], [ 491898.642122838005889, 2146021.986234359908849 ], [ 491903.945377768017352, 2146030.701855089981109 ], [ 491905.757381755975075, 2146033.929328879807144 ], [ 491907.65237938798964, 2146037.661480170208961 ], [ 491917.330044202972203, 2146056.736736529972404 ], [ 491926.728142672975082, 2146075.916710960213095 ], [ 491929.765490131976549, 2146081.757076589856297 ], [ 491932.511749588011298, 2146086.621399119962007 ], [ 491935.994527332019061, 2146093.480644329916686 ], [ 491937.996534265985247, 2146097.431228709872812 ], [ 491939.99108572199475, 2146101.351767910178751 ], [ 491945.816131661995314, 2146113.576195579953492 ], [ 491950.375782857008744, 2146121.804173820186406 ], [ 492062.991794775007293, 2146305.271585819777101 ], [ 492083.531791036017239, 2146338.411215220112354 ], [ 492120.177466478024144, 2146399.249864690005779 ], [ 492128.71398974902695, 2146413.469793910160661 ], [ 492170.262583471019752, 2146482.680413169786334 ], [ 492234.219949964026455, 2146588.664040519855917 ], [ 492283.942191363021266, 2146671.038273389916867 ], [ 492289.095773720007855, 2146679.598661120049655 ], [ 492292.551461479975842, 2146685.325074580032378 ], [ 492299.868971928022802, 2146697.450906880199909 ], [ 492305.653289998997934, 2146707.036089090164751 ], [ 492307.186482375022024, 2146709.576739190146327 ], [ 492318.400560497015249, 2146728.932275849860162 ], [ 492323.489761458011344, 2146735.82426779018715 ], [ 492324.759226240974385, 2146737.543425890151411 ], [ 492339.610814811021555, 2146757.656019099988043 ], [ 492375.776708251971286, 2146815.636261680163443 ], [ 492418.503130970988423, 2146890.407502260059118 ], [ 492446.422651592991315, 2146936.425320730078965 ], [ 492524.826357752026524, 2147066.062149450182915 ], [ 492526.019075826974586, 2147068.034252509940416 ], [ 492580.971462748013437, 2147156.768077029846609 ], [ 492583.944345641008113, 2147163.872097029816359 ], [ 492610.097760992997792, 2147203.796889579854906 ], [ 492623.19734429201344, 2147223.794206900056452 ], [ 492653.622619744972326, 2147277.7560168299824 ], [ 492661.659484958974645, 2147292.107562019955367 ], [ 492680.029462408972904, 2147310.477539769839495 ], [ 492693.806945473013911, 2147322.532837649807334 ], [ 492731.69502378499601, 2147346.643433270044625 ], [ 492762.120298762980383, 2147363.865287249907851 ], [ 492802.878685908974148, 2147379.939017479773611 ], [ 492836.174269710027147, 2147387.975882430095226 ], [ 492865.203488412022125, 2147391.104585339780897 ], [ 492868.720776011992712, 2147391.483670569956303 ], [ 492874.261770260985941, 2147391.550154730211943 ], [ 493096.62336177501129, 2147396.903889169916511 ], [ 493189.672000124002807, 2147398.501394759863615 ], [ 493192.86952485400252, 2147398.55629146983847 ], [ 493265.128554878989235, 2147399.796870660036802 ], [ 493313.469519904989284, 2147400.224131119903177 ], [ 493531.04683056299109, 2147401.434233400039375 ], [ 493627.203374464006629, 2147403.254708840046078 ], [ 493677.843533931009006, 2147404.087919820100069 ], [ 493698.333530485979281, 2147404.425040099769831 ], [ 493707.742076663009357, 2147404.336505829822272 ], [ 493709.817682298016734, 2147404.316974420100451 ], [ 493713.546048894000705, 2147404.574103150051087 ], [ 493717.440737502998672, 2147404.384999359957874 ], [ 493840.782398810028099, 2147405.197725410107523 ], [ 493913.07912337500602, 2147404.456829950213432 ], [ 493923.24090758501552, 2147404.352692179847509 ], [ 493955.630635308974888, 2147408.323670189827681 ], [ 493992.370589855010621, 2147419.804906039964408 ], [ 494021.073679412016645, 2147435.304574669804424 ], [ 494041.704025071987417, 2147450.548606470227242 ], [ 494070.981176529021468, 2147477.529511319939047 ], [ 494093.369586491025984, 2147500.491983559913933 ], [ 494111.739563987008296, 2147528.621012149844319 ], [ 494114.050606596982107, 2147533.820858090184629 ], [ 494116.361649208003655, 2147539.020704039838165 ] ] ] ] } }
]
}
