{
"type": "FeatureCollection",
"name": "Distrito Local 11",
"crs": { "type": "name", "properties": { "name": "urn:ogc:def:crs:EPSG::32614" } },
"features": [
{ "type": "Feature", "properties": { "fid": 1, "ID": 2.0, "ENTIDAD": 9, "MUNICIPIO": 6, "NOMBRE": "IZTACALCO", "CONTROL": 2.0, "GEOMETRY1_": null }, "geometry": { "type": "MultiPolygon", "coordinates": [ [ [ [ 492551.599309625220485, 2143528.561874529812485, 0.0 ], [ 492503.391904677555431, 2143555.598305359017104, 0.0 ], [ 492521.239506910555065, 2143632.852096423041075, 0.0 ], [ 492521.239507619873621, 2143632.852099614683539, 0.0 ], [ 492545.508600536093581, 2143742.139648077543825, 0.0 ], [ 492563.356544069189113, 2143822.522052136715502, 0.0 ], [ 492563.356544789217878, 2143822.522055312991142, 0.0 ], [ 492575.025212959677447, 2143873.970273125451058, 0.0 ], [ 492587.672780347813386, 2143929.734546518884599, 0.0 ], [ 492588.825999796914402, 2143934.819195825606585, 0.0 ], [ 492599.910252689034678, 2143983.690673611592501, 0.0 ], [ 492601.725460180430673, 2143991.694088325370103, 0.0 ], [ 492601.725460901798215, 2143991.694091503042728, 0.0 ], [ 492608.243323552131187, 2144020.431939957197756, 0.0 ], [ 492608.243324294802733, 2144020.431943128351122, 0.0 ], [ 492611.506817431538366, 2144034.374072908889502, 0.0 ], [ 492622.5788215372595, 2144083.405303963925689, 0.0 ], [ 492634.655134144355543, 2144136.884011848364025, 0.0 ], [ 492634.655133424384985, 2144136.884011977817863, 0.0 ], [ 492634.655134140339214, 2144136.884015150833875, 0.0 ], [ 492503.172072992601898, 2144160.47124188253656, 0.0 ], [ 492510.828889512573369, 2144194.571510978974402, 0.0 ], [ 492538.588384096103255, 2144314.722109196241945, 0.0 ], [ 492568.570987811137456, 2144444.494924833532423, 0.0 ], [ 492568.570987084473018, 2144444.494924971368164, 0.0 ], [ 492568.570987816492561, 2144444.494928139727563, 0.0 ], [ 492512.706940701813437, 2144455.110091438982636, 0.0 ], [ 492460.729803101334255, 2144465.001925739459693, 0.0 ], [ 492413.033890209859237, 2144474.08448496973142, 0.0 ], [ 492366.00010536093032, 2144483.015652969479561, 0.0 ], [ 492305.545386292797048, 2144492.386381500400603, 0.0 ], [ 492318.080154121969827, 2144549.168126404751092, 0.0 ], [ 492331.354341245023534, 2144609.299396282527596, 0.0 ], [ 492359.443222565168981, 2144736.540340542327613, 0.0 ], [ 492371.384842665691394, 2144793.364282653667033, 0.0 ], [ 492404.019580745312851, 2144942.56778728030622, 0.0 ], [ 492404.019581443979405, 2144942.567790476605296, 0.0 ], [ 492436.323926275596023, 2145090.260762698017061, 0.0 ], [ 492436.323926974204369, 2145090.260765886865556, 0.0 ], [ 492443.635658334882464, 2145123.651014397852123, 0.0 ], [ 492473.436856979329605, 2145259.883947066497058, 0.0 ], [ 492474.695322871848475, 2145265.636886788066477, 0.0 ], [ 492488.606489196710754, 2145329.230268008541316, 0.0 ], [ 492504.328977467841469, 2145399.928120686672628, 0.0 ], [ 492520.466136402217671, 2145472.490584417711943, 0.0 ], [ 492530.202782595530152, 2145519.38319131359458, 0.0 ], [ 492539.622820882999804, 2145562.44587001344189, 0.0 ], [ 492552.666039308533072, 2145622.071522008161992, 0.0 ], [ 492552.666039890842512, 2145622.071524986997247, 0.0 ], [ 492560.926138266397174, 2145664.28980442835018, 0.0 ], [ 492560.92613768146839, 2145664.289804774802178, 0.0 ], [ 492560.92613826377783, 2145664.289807749912143, 0.0 ], [ 492371.465206915221643, 2145776.751549739390612, 0.0 ], [ 492063.340222607075702, 2145959.399233890231699, 0.0 ], [ 491933.609937027096748, 2146020.756234789732844, 0.0 ], [ 491916.089967923297081, 2146029.042447639629245, 0.0 ], [ 491905.757381756207906, 2146033.929328879341483, 0.0 ], [ 491907.652379388571717, 2146037.661480169743299, 0.0 ], [ 491917.330044204602018, 2146056.736736529041082, 0.0 ], [ 491926.728142672975082, 2146075.916710960213095, 0.0 ], [ 491929.765490132034756, 2146081.757076588924974, 0.0 ], [ 491932.511749588360544, 2146086.621399119496346, 0.0 ], [ 491935.994527332077269, 2146093.480644329916686, 0.0 ], [ 491937.9965342663927, 2146097.431228708941489, 0.0 ], [ 491939.991085721936543, 2146101.351767909713089, 0.0 ], [ 491945.816131662635598, 2146113.576195579953492, 0.0 ], [ 491950.375782857474405, 2146121.804173819255084, 0.0 ], [ 492052.087512686208356, 2146287.506967978551984, 0.0 ], [ 492062.991794775007293, 2146305.271585819777101, 0.0 ], [ 492073.153896598552819, 2146321.667318520136178, 0.0 ], [ 492083.531791036133654, 2146338.411215220112354, 0.0 ], [ 492089.169587257842068, 2146347.771007446106523, 0.0 ], [ 492120.177466478024144, 2146399.249864690005779, 0.0 ], [ 492128.71398974902695, 2146413.469793910160661, 0.0 ], [ 492170.262583471019752, 2146482.680413169786334, 0.0 ], [ 492174.244805591239128, 2146489.279345682822168, 0.0 ], [ 492234.219949964492116, 2146588.664040518924594, 0.0 ], [ 492283.942191363486927, 2146671.038273388985544, 0.0 ], [ 492289.095773720007855, 2146679.598661119583994, 0.0 ], [ 492292.551461480616126, 2146685.325074579566717, 0.0 ], [ 492299.868971928139217, 2146697.450906879734248, 0.0 ], [ 492301.985979037883226, 2146700.958995238877833, 0.0 ], [ 492305.653289998997934, 2146707.036089090164751, 0.0 ], [ 492306.531226797029376, 2146708.490916448179632, 0.0 ], [ 492307.186482375254855, 2146709.576739189680666, 0.0 ], [ 492318.400560497015249, 2146728.932275849860162, 0.0 ], [ 492323.489761458185967, 2146735.824267789255828, 0.0 ], [ 492324.247649704455398, 2146736.850629242137074, 0.0 ], [ 492324.759226240974385, 2146737.543425890151411, 0.0 ], [ 492339.610814811021555, 2146757.656019099988043, 0.0 ], [ 492367.739843042858411, 2146802.751763328909874, 0.0 ], [ 492375.776708252087701, 2146815.636261680163443, 0.0 ], [ 492418.503130970930215, 2146890.407502259593457, 0.0 ], [ 492437.354721413168591, 2146921.479277402162552, 0.0 ], [ 492446.422651592991315, 2146936.425320730078965, 0.0 ], [ 492455.616809458413627, 2146951.627426941879094, 0.0 ], [ 492524.826357752550393, 2147066.062149449717253, 0.0 ], [ 492526.01907582761487, 2147068.034252509940416, 0.0 ], [ 492580.97146274842089, 2147156.768077029846609, 0.0 ], [ 492583.944345641124528, 2147163.872097029350698, 0.0 ], [ 492610.097760992415715, 2147203.796889578923583, 0.0 ], [ 492623.19734429201344, 2147223.79420689959079, 0.0 ], [ 492653.622619745379779, 2147277.7560168299824, 0.0 ], [ 492661.659484959149268, 2147292.107562019955367, 0.0 ], [ 492663.190316346823238, 2147293.638393432833254, 0.0 ], [ 492680.029462408856489, 2147310.477539768442512, 0.0 ], [ 492690.785567615996115, 2147319.889131981413811, 0.0 ], [ 492693.806945473013911, 2147322.532837649807334, 0.0 ], [ 492731.69502378499601, 2147346.643433270044625, 0.0 ], [ 492762.120298762980383, 2147363.865287249907851, 0.0 ], [ 492802.878685909498017, 2147379.939017479773611, 0.0 ], [ 492836.174269710492808, 2147387.975882430095226, 0.0 ], [ 492865.203488411498256, 2147391.104585338849574, 0.0 ], [ 492867.553965108876582, 2147391.357914353720844, 0.0 ], [ 492868.720776011992712, 2147391.483670569956303, 0.0 ], [ 492871.482925054617226, 2147391.516812484711409, 0.0 ], [ 492874.261770260927733, 2147391.550154729746282, 0.0 ], [ 493096.623361774662044, 2147396.903889169450849, 0.0 ], [ 493189.269165694888216, 2147398.494478696957231, 0.0 ], [ 493189.672000124002807, 2147398.501394759863615, 0.0 ], [ 493189.68563650775468, 2147398.501628876198083, 0.0 ], [ 493192.869524854060728, 2147398.556291469372809, 0.0 ], [ 493265.128554878698196, 2147399.796870659571141, 0.0 ], [ 493313.469519904465415, 2147400.224131119437516, 0.0 ], [ 493529.835886417131405, 2147401.427498477976769, 0.0 ], [ 493531.04683056299109, 2147401.434233400039375, 0.0 ], [ 493531.648435370007064, 2147401.445623231120408, 0.0 ], [ 493627.203374464181252, 2147403.254708838649094, 0.0 ], [ 493665.105700529878959, 2147403.878337094560266, 0.0 ], [ 493677.843533931009006, 2147404.087919820100069, 0.0 ], [ 493698.333530485804658, 2147404.425040099769831, 0.0 ], [ 493707.742076662369072, 2147404.336505829356611, 0.0 ], [ 493709.817682297667488, 2147404.316974420100451, 0.0 ], [ 493709.817682297725696, 2147404.316974420100451, 0.0 ], [ 493709.817682298016734, 2147404.316974420100451, 0.0 ], [ 493713.546048894000705, 2147404.574103150051087, 0.0 ], [ 493714.821200717240572, 2147404.5121890748851, 0.0 ], [ 493717.440737502358388, 2147404.384999359026551, 0.0 ], [ 493840.782398810260929, 2147405.197725409176201, 0.0 ], [ 493912.940116442681756, 2147404.458254490513355, 0.0 ], [ 493913.07912337500602, 2147404.456829950213432, 0.0 ], [ 493913.117632409266662, 2147404.456435310188681, 0.0 ], [ 493923.240907584549859, 2147404.352692179381847, 0.0 ], [ 493950.410534520691726, 2147407.683686253614724, 0.0 ], [ 493955.630635308974888, 2147408.323670189827681, 0.0 ], [ 493992.370589855010621, 2147419.804906039964408, 0.0 ], [ 494010.948959906760138, 2147429.837226042058319, 0.0 ], [ 494021.073679411376361, 2147435.304574669338763, 0.0 ], [ 494021.073679411958437, 2147435.304574669804424, 0.0 ], [ 494021.073679412016645, 2147435.304574669804424, 0.0 ], [ 494041.704025071987417, 2147450.548606470227242, 0.0 ], [ 494064.70750121679157, 2147471.747888852376491, 0.0 ], [ 494070.981176529196091, 2147477.529511319939047, 0.0 ], [ 494093.369586490618531, 2147500.491983558982611, 0.0 ], [ 494097.754510299884714, 2147507.206398273352534, 0.0 ], [ 494111.739563987008296, 2147528.621012149844319, 0.0 ], [ 494112.713152153650299, 2147530.811585553456098, 0.0 ], [ 494114.050606597447768, 2147533.820858089253306, 0.0 ], [ 494115.388061040197499, 2147536.83013063063845, 0.0 ], [ 494116.361649207537994, 2147539.020704038906842, 0.0 ], [ 494116.361649662081618, 2147539.020701714791358, 0.0 ], [ 494116.361649206315633, 2147539.020700701046735, 0.0 ], [ 494124.321271174470894, 2147498.301879713311791, 0.0 ], [ 494119.29447637690464, 2147364.693135719746351, 0.0 ], [ 494117.681643720949069, 2147350.042311635799706, 0.0 ], [ 494110.305204414005857, 2147283.03541278000921, 0.0 ], [ 494107.70995638880413, 2147259.460449276492, 0.0 ], [ 494103.593853419471998, 2147222.070197429507971, 0.0 ], [ 494090.808010767796077, 2147105.924783519934863, 0.0 ], [ 494086.653140976675786, 2147068.18233003327623, 0.0 ], [ 494084.575706080999225, 2147049.311103289946914, 0.0 ], [ 494083.59156866336707, 2147040.371327803004533, 0.0 ], [ 494082.056649881764315, 2147026.428326499648392, 0.0 ], [ 494073.003855424467474, 2146942.660578770097345, 0.0 ], [ 494063.314767664589453, 2146853.005051651969552, 0.0 ], [ 494063.168959095026366, 2146851.655848870053887, 0.0 ], [ 494062.622312260617036, 2146846.256569991819561, 0.0 ], [ 494059.19925316789886, 2146812.446714169345796, 0.0 ], [ 494052.682988264365122, 2146746.662665630225092, 0.0 ], [ 494049.568531591154169, 2146715.221161789726466, 0.0 ], [ 494049.061032373982016, 2146710.097783859819174, 0.0 ], [ 494043.743247764010448, 2146656.412932000122964, 0.0 ], [ 494039.660987571987789, 2146615.201121100224555, 0.0 ], [ 494037.256957112986129, 2146592.178482609800994, 0.0 ], [ 494031.741423626663163, 2146538.72229079157114, 0.0 ], [ 494031.189870277943555, 2146533.376671609934419, 0.0 ], [ 494030.802095728227869, 2146529.620686205569655, 0.0 ], [ 494026.216299459978472, 2146485.20265035983175, 0.0 ], [ 494025.388987065991387, 2146477.410454810131341, 0.0 ], [ 494024.288031122996472, 2146467.519311309792101, 0.0 ], [ 494024.188034887192771, 2146466.477012004703283, 0.0 ], [ 494023.345728053536732, 2146457.69732324918732, 0.0 ], [ 494023.070876683981624, 2146455.045588363427669, 0.0 ], [ 494022.933450998971239, 2146453.719720920082182, 0.0 ], [ 494018.720895646722056, 2146412.24766205670312, 0.0 ], [ 494006.578560695401393, 2146292.707955699414015, 0.0 ], [ 493998.349746868771035, 2146211.295478079468012, 0.0 ], [ 493992.923647756630089, 2146157.787757629994303, 0.0 ], [ 493991.874509345798288, 2146147.442018697503954, 0.0 ], [ 493989.809234530024696, 2146127.075979440007359, 0.0 ], [ 493982.650450971501414, 2146061.594823016785085, 0.0 ], [ 493979.636126520694233, 2146034.02289697015658, 0.0 ], [ 493977.922526573529467, 2146018.396565031725913, 0.0 ], [ 493975.565542368975002, 2145996.90320678986609, 0.0 ], [ 493973.438028508622665, 2145974.486105601768941, 0.0 ], [ 493972.732737842830829, 2145967.054627709556371, 0.0 ], [ 493970.74943662044825, 2145947.682596215512604, 0.0 ], [ 493962.565111314004753, 2145867.741634250152856, 0.0 ], [ 493957.868297104840167, 2145822.139124623965472, 0.0 ], [ 493957.254557683889288, 2145816.180179559625685, 0.0 ], [ 493949.454569225665182, 2145731.501805670093745, 0.0 ], [ 493943.206365776364692, 2145682.020604019518942, 0.0 ], [ 493940.183126457675826, 2145653.148783123120666, 0.0 ], [ 493937.553949970984831, 2145628.040247340220958, 0.0 ], [ 493931.817434029013384, 2145570.984439500141889, 0.0 ], [ 493931.087397130788304, 2145562.884375116787851, 0.0 ], [ 493926.845508068392519, 2145515.818843780085444, 0.0 ], [ 493921.061419038800523, 2145464.004326359368861, 0.0 ], [ 493921.061418520228472, 2145464.004321450833231, 0.0 ], [ 493914.99469690292608, 2145406.522134381346405, 0.0 ], [ 493914.533347573014908, 2145402.150849500205368, 0.0 ], [ 493914.316079770622309, 2145400.09224667865783, 0.0 ], [ 493912.651955003500916, 2145384.324738088529557, 0.0 ], [ 493894.899538402853068, 2145216.120521056465805, 0.0 ], [ 493891.727135479974095, 2145186.061990899965167, 0.0 ], [ 493880.557308414019644, 2145081.56610930012539, 0.0 ], [ 493873.723267983004916, 2144921.77514939988032, 0.0 ], [ 493872.694452647003345, 2144903.693077300209552, 0.0 ], [ 493871.726272789994255, 2144886.563097060192376, 0.0 ], [ 493871.175410322204698, 2144878.004774698987603, 0.0 ], [ 493870.524837039760314, 2144867.897322848904878, 0.0 ], [ 493865.469729609671049, 2144829.785863809753209, 0.0 ], [ 493860.337774513987824, 2144772.171670690178871, 0.0 ], [ 493848.275100033613853, 2144655.289353230036795, 0.0 ], [ 493844.597693141084164, 2144614.647479951381683, 0.0 ], [ 493843.692070949007757, 2144604.638747320044786, 0.0 ], [ 493839.745565816294402, 2144591.15853681974113, 0.0 ], [ 493826.756272297352552, 2144546.790569469798356, 0.0 ], [ 493800.546439179684967, 2144457.264759739860892, 0.0 ], [ 493792.399517337733414, 2144405.272152149584144, 0.0 ], [ 493787.107997545332182, 2144371.502353273332119, 0.0 ], [ 493778.633541587973014, 2144317.419465090148151, 0.0 ], [ 493768.399758634506725, 2144257.155736702494323, 0.0 ], [ 493764.988497649901547, 2144237.067827240098268, 0.0 ], [ 493757.522424874594435, 2144193.462350839748979, 0.0 ], [ 493748.911465279874392, 2144136.52795001026243, 0.0 ], [ 493738.137555415043607, 2144060.485453750472516, 0.0 ], [ 493737.556963694107253, 2144057.07551162969321, 0.0 ], [ 493723.126952346996404, 2143972.32489993982017, 0.0 ], [ 493718.573290363012347, 2143947.37875840999186, 0.0 ], [ 493708.980199391022325, 2143887.031437479890883, 0.0 ], [ 493698.056388940254692, 2143818.312950707506388, 0.0 ], [ 493694.415118789824191, 2143795.406788450200111, 0.0 ], [ 493688.437511027557775, 2143757.802979149390012, 0.0 ], [ 493672.730363710375968, 2143658.9939956497401, 0.0 ], [ 493667.104009644535836, 2143623.600224850233644, 0.0 ], [ 493659.548883413721342, 2143558.200520709622651, 0.0 ], [ 493651.172980698815081, 2143511.509496489539742, 0.0 ], [ 493644.581787546514533, 2143463.031817119568586, 0.0 ], [ 493639.097238066897262, 2143425.372814787086099, 0.0 ], [ 493637.227414008986671, 2143412.53389177005738, 0.0 ], [ 493629.598993482999504, 2143360.154255580157042, 0.0 ], [ 493625.662721500732005, 2143329.314321138430387, 0.0 ], [ 493617.872305645782035, 2143268.277910210192204, 0.0 ], [ 493616.285423390218057, 2143255.320494838990271, 0.0 ], [ 493612.310185088019352, 2143222.86136707989499, 0.0 ], [ 493603.256009988021106, 2143172.150134860072285, 0.0 ], [ 493590.894407150160987, 2143174.404863465111703, 0.0 ], [ 493313.622487507003825, 2143224.978639119770378, 0.0 ], [ 493082.962178313988261, 2143267.441196050029248, 0.0 ], [ 493027.762974697980098, 2143278.047319709789008, 0.0 ], [ 492988.335433239000849, 2143288.428852700162679, 0.0 ], [ 492898.340041575022042, 2143334.026714030187577, 0.0 ], [ 492755.479870318027679, 2143414.218389729969203, 0.0 ], [ 492705.374309908016585, 2143442.319373779930174, 0.0 ], [ 492652.525751571985893, 2143471.958728829864413, 0.0 ], [ 492601.695792889979202, 2143500.465981250163168, 0.0 ], [ 492569.388576938014012, 2143518.585019401740283, 0.0 ], [ 492551.599309625220485, 2143528.561874529812485, 0.0 ] ] ] ] } }
]
}
