{
"type": "FeatureCollection",
"name": "Distrito Local 15",
"crs": { "type": "name", "properties": { "name": "urn:ogc:def:crs:EPSG::6369" } },
"features": [
{ "type": "Feature", "properties": { "Name": "DISTRITO LOCAL 15", "descriptio": null, "timestamp": null, "begin": null, "end": null, "altitudeMo": null, "tessellate": -1, "extrude": 0, "visibility": -1, "drawOrder": null, "icon": null }, "geometry": { "type": "MultiPolygon", "coordinates": [ [ [ [ 488063.73333132249536, 2145706.610479114577174, 0.0 ], [ 488082.26328337949235, 2145703.151628281921148, 0.0 ], [ 488119.366704755695537, 2145725.506979596801102, 0.0 ], [ 488214.766262496705167, 2145746.033522609621286, 0.0 ], [ 488335.838653637329116, 2145772.083933182060719, 0.0 ], [ 488636.149123666458763, 2145837.735258458182216, 0.0 ], [ 488757.249209798581433, 2145864.794250730425119, 0.0 ], [ 488797.61590517743025, 2145873.666051466483623, 0.0 ], [ 488873.352869459777139, 2145891.263471129816025, 0.0 ], [ 489091.21453005366493, 2145941.883443968836218, 0.0 ], [ 489143.172561199986376, 2145953.955848629586399, 0.0 ], [ 489133.812902414472774, 2145963.209148371592164, 0.0 ], [ 489121.420324995997362, 2145975.460902008693665, 0.0 ], [ 489113.948513903829735, 2145982.847806746605784, 0.0 ], [ 489174.1625707433559, 2145999.265763438306749, 0.0 ], [ 489183.017253613041248, 2146001.680080095306039, 0.0 ], [ 489299.878991884936113, 2146029.394325199536979, 0.0 ], [ 489351.612251534068491, 2146043.251447893213481, 0.0 ], [ 489410.274072575615719, 2146049.256200386211276, 0.0 ], [ 489492.493002972740214, 2146064.729986962396652, 0.0 ], [ 489584.411919512203895, 2146081.127581623848528, 0.0 ], [ 489590.346503480861429, 2146082.160392554476857, 0.0 ], [ 489696.682693035050761, 2146100.666353697422892, 0.0 ], [ 489708.680423618643545, 2146101.964336591307074, 0.0 ], [ 489716.747445049812086, 2146102.837072954513133, 0.0 ], [ 489762.221528355963528, 2146106.87723418418318, 0.0 ], [ 489800.155646427650936, 2146107.151733446400613, 0.0 ], [ 489812.352379041956738, 2146107.199326633941382, 0.0 ], [ 489871.762783001875505, 2146104.466961660888046, 0.0 ], [ 489894.619115761946887, 2146103.415767949540168, 0.0 ], [ 490091.152080026979093, 2146074.843976399861276, 0.0 ], [ 490134.544316493906081, 2146068.502033136319369, 0.0 ], [ 490155.240354644483887, 2146065.477227084804326, 0.0 ], [ 490228.255194283090532, 2146055.203780640847981, 0.0 ], [ 490264.657288282702211, 2146050.081877138931304, 0.0 ], [ 490339.159773245744873, 2146039.222657142672688, 0.0 ], [ 490351.874680738605093, 2146038.191718446090817, 0.0 ], [ 490423.531775618088432, 2146028.225978546310216, 0.0 ], [ 490509.723061716824304, 2146015.776277048047632, 0.0 ], [ 490520.974445178173482, 2146014.151096910703927, 0.0 ], [ 490814.41232551948633, 2145966.673513970803469, 0.0 ], [ 491016.951491595653351, 2145937.040614424273372, 0.0 ], [ 491219.490657677466515, 2145907.407714864704758, 0.0 ], [ 491437.255700373381842, 2145876.267169452738017, 0.0 ], [ 491472.334105939953588, 2145870.475520460866392, 0.0 ], [ 491494.331097545742523, 2145867.655788785777986, 0.0 ], [ 491530.511351218039636, 2145863.017945172265172, 0.0 ], [ 491580.785035804554354, 2145856.721318364143372, 0.0 ], [ 491617.915247439406812, 2145853.872172377537936, 0.0 ], [ 491657.814212773169857, 2145859.57202421547845, 0.0 ], [ 491701.108956312178634, 2145868.890240451321006, 0.0 ], [ 491713.919369024864864, 2145867.722649094182998, 0.0 ], [ 491729.776433425256982, 2145867.975705769378692, 0.0 ], [ 491741.373517982312478, 2145867.605741716921329, 0.0 ], [ 491764.466539210407063, 2145867.330824464559555, 0.0 ], [ 491789.071603571646847, 2145872.554245804436505, 0.0 ], [ 491800.55372039595386, 2145878.31367120379582, 0.0 ], [ 491816.796422830666415, 2145886.548669517040253, 0.0 ], [ 491820.030537861632183, 2145890.157751013059169, 0.0 ], [ 491827.422514260746539, 2145902.932566124480218, 0.0 ], [ 491883.425171436276287, 2145995.624349854420871, 0.0 ], [ 491893.482842339028139, 2146012.387134841643274, 0.0 ], [ 491895.714752515894361, 2146016.878663033712655, 0.0 ], [ 491898.642122827004641, 2146021.986164206173271, 0.0 ], [ 491903.945377750846092, 2146030.701784934848547, 0.0 ], [ 491905.757381738745607, 2146033.929258718620986, 0.0 ], [ 491916.089967907173559, 2146029.042377486359328, 0.0 ], [ 491933.609937008353882, 2146020.75616463040933, 0.0 ], [ 492063.340222591243219, 2145959.399163736961782, 0.0 ], [ 492371.465206896013115, 2145776.751479594036937, 0.0 ], [ 492560.926138252951205, 2145664.289737606421113, 0.0 ], [ 492552.666039295087103, 2145622.071455187629908, 0.0 ], [ 492539.622820869553834, 2145562.445803194772452, 0.0 ], [ 492530.202782582025975, 2145519.383124495856464, 0.0 ], [ 492520.466136388713494, 2145472.490517601370811, 0.0 ], [ 492504.328977454279084, 2145399.92805387172848, 0.0 ], [ 492488.606489183148369, 2145329.230201196391135, 0.0 ], [ 492474.695322858227883, 2145265.636819977778941, 0.0 ], [ 492473.436856965709012, 2145259.883880256675184, 0.0 ], [ 492443.635658321203664, 2145123.6509475922212, 0.0 ], [ 492436.323926261917222, 2145090.260695891920477, 0.0 ], [ 492404.019580731575843, 2144942.567720479331911, 0.0 ], [ 492371.384842651896179, 2144793.364215855952352, 0.0 ], [ 492359.443222551373765, 2144736.540273746475577, 0.0 ], [ 492331.35434123117011, 2144609.299329491332173, 0.0 ], [ 492318.080154108116403, 2144549.168059614021331, 0.0 ], [ 492305.545385572244413, 2144492.38631151150912, 0.0 ], [ 492366.000105351093225, 2144483.015582869760692, 0.0 ], [ 492413.033890194725245, 2144474.08441486954689, 0.0 ], [ 492460.729803088994231, 2144465.001855637412518, 0.0 ], [ 492512.7069406855735, 2144455.110021338798106, 0.0 ], [ 492568.570987797691487, 2144444.494858046527952, 0.0 ], [ 492538.588384082599077, 2144314.722042412962765, 0.0 ], [ 492510.828889499010984, 2144194.571444199420512, 0.0 ], [ 492503.172072265762836, 2144160.471171928104013, 0.0 ], [ 492634.655134131025989, 2144136.883945069275796, 0.0 ], [ 492622.578821523929946, 2144083.405237185303122, 0.0 ], [ 492611.506817418150604, 2144034.37400613212958, 0.0 ], [ 492608.243323538743425, 2144020.431873181834817, 0.0 ], [ 492601.725460167101119, 2143991.694021549541503, 0.0 ], [ 492599.910252675705124, 2143983.690606836229563, 0.0 ], [ 492588.82599978352664, 2143934.819129052106291, 0.0 ], [ 492587.672780334425624, 2143929.734479746315628, 0.0 ], [ 492575.025212946289685, 2143873.970206353347749, 0.0 ], [ 492563.356544055801351, 2143822.521985366474837, 0.0 ], [ 492545.508600522647612, 2143742.139581309165806, 0.0 ], [ 492521.239506897050887, 2143632.852029658388346, 0.0 ], [ 492503.391903988202102, 2143555.598235671874136, 0.0 ], [ 492465.101648434065282, 2143576.063243335578591, 0.0 ], [ 492426.811392876203172, 2143596.528250993229449, 0.0 ], [ 492380.640924585575704, 2143621.204999003559351, 0.0 ], [ 492330.181225098669529, 2143648.174214057158679, 0.0 ], [ 492283.530099350959063, 2143673.107859252952039, 0.0 ], [ 492241.258984564163256, 2143695.70051830355078, 0.0 ], [ 492193.09425271168584, 2143721.443141142372042, 0.0 ], [ 492142.782454553060234, 2143748.333307339344174, 0.0 ], [ 492035.514921044115908, 2143807.925694693345577, 0.0 ], [ 492023.776604435173795, 2143814.446906541474164, 0.0 ], [ 491987.333110418112483, 2143834.693058775737882, 0.0 ], [ 491980.900878027547151, 2143838.266480039805174, 0.0 ], [ 491937.780050335393753, 2143862.222219333052635, 0.0 ], [ 491886.639655203616712, 2143890.633222545031458, 0.0 ], [ 491880.746381410048343, 2143893.907225816976279, 0.0 ], [ 491825.340970041346736, 2143923.65981680015102, 0.0 ], [ 491772.977982350683305, 2143951.782356037758291, 0.0 ], [ 491767.546164162922651, 2143954.693438965361565, 0.0 ], [ 491722.946362834947649, 2143978.612295418512076, 0.0 ], [ 491717.484694991726428, 2143981.534549659118056, 0.0 ], [ 491667.888042410952039, 2144008.187043533660471, 0.0 ], [ 491662.392222878872417, 2144011.141794476192445, 0.0 ], [ 491606.750361999147572, 2144041.089544692076743, 0.0 ], [ 491600.725826464942656, 2144044.387843613978475, 0.0 ], [ 491593.438295884407125, 2144048.377604197245091, 0.0 ], [ 491558.49770327960141, 2144067.506830944214016, 0.0 ], [ 491551.686313433223404, 2144071.246981967240572, 0.0 ], [ 491519.965746458212379, 2144088.646232793107629, 0.0 ], [ 491503.60881093860371, 2144097.349024600815028, 0.0 ], [ 491482.607794568466488, 2144108.208365847356617, 0.0 ], [ 491449.367560617625713, 2144125.342645403929055, 0.0 ], [ 491411.381173943926115, 2144147.671927302610129, 0.0 ], [ 491396.016276732087135, 2144156.70377138024196, 0.0 ], [ 491376.452660638431553, 2144167.52804578281939, 0.0 ], [ 491348.806194154953118, 2144182.82444793311879, 0.0 ], [ 491342.384626972663682, 2144186.80547943757847, 0.0 ], [ 491304.69498990586726, 2144206.838939825538546, 0.0 ], [ 491267.232799522636924, 2144227.805980698671192, 0.0 ], [ 491260.211321467359085, 2144231.260367605835199, 0.0 ], [ 491221.218328121176455, 2144252.667427863460034, 0.0 ], [ 491215.600058090116363, 2144255.751844685990363, 0.0 ], [ 491178.384954203153029, 2144276.182847890537232, 0.0 ], [ 491175.924410929088481, 2144262.191625294741243, 0.0 ], [ 491163.861049515311606, 2144193.596540415659547, 0.0 ], [ 491156.504393097595312, 2144149.895731477066875, 0.0 ], [ 491148.043825687840581, 2144101.064229601062834, 0.0 ], [ 491147.009575267729815, 2144095.476539582479745, 0.0 ], [ 491139.959558841539547, 2144057.387788782827556, 0.0 ], [ 491138.904131315997802, 2144051.685686315409839, 0.0 ], [ 491126.052173267118633, 2143978.048927815165371, 0.0 ], [ 491116.787341892893892, 2143920.385145119857043, 0.0 ], [ 491090.846976863394957, 2143946.88936142809689, 0.0 ], [ 490916.182015208294615, 2143989.123905842192471, 0.0 ], [ 490891.535626925819088, 2144000.586775037460029, 0.0 ], [ 490880.233160580508411, 2144009.255662558600307, 0.0 ], [ 490719.594894157897215, 2144057.882338012568653, 0.0 ], [ 490712.587833103607409, 2144060.003439616877586, 0.0 ], [ 490698.810010452056304, 2144064.393169482238591, 0.0 ], [ 490673.183620804455131, 2144023.459248736966401, 0.0 ], [ 490654.922743193048518, 2143993.969931609462947, 0.0 ], [ 490637.868071616219822, 2143966.704940072260797, 0.0 ], [ 490618.623347229906358, 2143935.756961978506297, 0.0 ], [ 490599.509205293550622, 2143905.052727554924786, 0.0 ], [ 490581.280547610018402, 2143875.751351226121187, 0.0 ], [ 490561.679841538076289, 2143844.188268108293414, 0.0 ], [ 490524.807532228645869, 2143783.407356532756239, 0.0 ], [ 490506.551927713619079, 2143753.312817910686135, 0.0 ], [ 490501.30923544021789, 2143744.672383727505803, 0.0 ], [ 490487.985100736259483, 2143722.712805949617177, 0.0 ], [ 490469.897968650155235, 2143692.887312145903707, 0.0 ], [ 490451.402576376509387, 2143662.474462534300983, 0.0 ], [ 490427.923107674985658, 2143624.316251839976758, 0.0 ], [ 490383.311503835604526, 2143549.613660292234272, 0.0 ], [ 490349.669452127418481, 2143493.279697130434215, 0.0 ], [ 490313.749966670351569, 2143433.132147636264563, 0.0 ], [ 490308.453627088398207, 2143424.263372301589698, 0.0 ], [ 490247.567894467676524, 2143322.309583997353911, 0.0 ], [ 490236.755386827979237, 2143304.339489059057087, 0.0 ], [ 490213.965091404505074, 2143266.462635118979961, 0.0 ], [ 490203.388464307412505, 2143248.884567245841026, 0.0 ], [ 490174.781860810995568, 2143201.341166768688709, 0.0 ], [ 490130.890844059933443, 2143128.395485300570726, 0.0 ], [ 490093.633990676491521, 2143062.935572957620025, 0.0 ], [ 490071.204478974803351, 2143023.489283099770546, 0.0 ], [ 490053.866602037858684, 2142993.031590849161148, 0.0 ], [ 490034.499424561741762, 2142959.036741904448718, 0.0 ], [ 490015.166658599395305, 2142925.069268824532628, 0.0 ], [ 489996.594127432792448, 2142892.437520514242351, 0.0 ], [ 489958.75078282674076, 2142825.947149085812271, 0.0 ], [ 489938.937056713039055, 2142835.793363510631025, 0.0 ], [ 489880.233846526709385, 2142848.803842145483941, 0.0 ], [ 489843.139277635957114, 2142853.500901849940419, 0.0 ], [ 489804.050085778580979, 2142857.720758652314544, 0.0 ], [ 489776.634592328628059, 2142860.680386391468346, 0.0 ], [ 489741.92841847758973, 2142864.427076395601034, 0.0 ], [ 489706.411978692747653, 2142868.261238290928304, 0.0 ], [ 489671.028969891020097, 2142871.709447209257632, 0.0 ], [ 489627.631725430081133, 2142876.765926485415548, 0.0 ], [ 489589.028240364976227, 2142880.985389238223433, 0.0 ], [ 489550.424755299347453, 2142885.204852012451738, 0.0 ], [ 489413.123009941598866, 2142899.194120394065976, 0.0 ], [ 489385.917379273858387, 2142902.266984831541777, 0.0 ], [ 489371.591317197366152, 2142903.368929424323142, 0.0 ], [ 489362.963596939051058, 2142904.180082801729441, 0.0 ], [ 489333.166024010512047, 2142907.5647305813618, 0.0 ], [ 489181.295392949192319, 2142928.877411262132227, 0.0 ], [ 489144.11817799450364, 2142934.094655076041818, 0.0 ], [ 489137.752134035748895, 2142935.102780191693455, 0.0 ], [ 489105.355503796075936, 2142939.534393444657326, 0.0 ], [ 489055.373663007223513, 2142946.417403325904161, 0.0 ], [ 488998.444046034535859, 2142954.537753535900265, 0.0 ], [ 488966.625601135427132, 2142958.955457600299269, 0.0 ], [ 488927.040410543442704, 2142964.4515042421408, 0.0 ], [ 488905.48276566376444, 2142966.94439536286518, 0.0 ], [ 488899.632122306444217, 2142967.453926836140454, 0.0 ], [ 488880.176084642938804, 2142969.148349662777036, 0.0 ], [ 488866.859545865969267, 2142970.4311972563155, 0.0 ], [ 488835.297596918360796, 2142975.615275221411139, 0.0 ], [ 488793.935764081776142, 2142981.709800379350781, 0.0 ], [ 488773.679667011543643, 2142984.085328904446214, 0.0 ], [ 488746.305823785020038, 2142987.031769614201039, 0.0 ], [ 488722.530702860152815, 2142989.26977438153699, 0.0 ], [ 488661.10027594177518, 2142994.919767299201339, 0.0 ], [ 488605.117883856000844, 2143000.068683470599353, 0.0 ], [ 488587.229226971569005, 2143002.190170908346772, 0.0 ], [ 488580.42807369842194, 2143002.996746921446174, 0.0 ], [ 488572.512198410520796, 2143004.035064417403191, 0.0 ], [ 488565.798196160641965, 2143004.929223375860602, 0.0 ], [ 488537.5346076960559, 2143008.693318167701364, 0.0 ], [ 488505.639979467669036, 2143012.782373877707869, 0.0 ], [ 488456.784015586890746, 2143019.920821636449546, 0.0 ], [ 488385.660510813002475, 2143033.300943119917065, 0.0 ], [ 488357.912529821216594, 2143037.779666581656784, 0.0 ], [ 488333.374722344335169, 2143041.572754398919642, 0.0 ], [ 488308.565594903950114, 2143045.817749695852399, 0.0 ], [ 488285.947394974296913, 2143049.395356320310384, 0.0 ], [ 488273.015489582961891, 2143051.372537981253117, 0.0 ], [ 488238.879889160627499, 2143056.3031210526824, 0.0 ], [ 488230.978980018815491, 2143057.494381664320827, 0.0 ], [ 488201.925632749509532, 2143061.874903922434896, 0.0 ], [ 488165.886025926796719, 2143068.106978867202997, 0.0 ], [ 488156.410389235243201, 2143069.631150051485747, 0.0 ], [ 488128.547330341069028, 2143073.939536984078586, 0.0 ], [ 488093.158944074704777, 2143078.446906869765371, 0.0 ], [ 488057.437931324122474, 2143082.481744867283851, 0.0 ], [ 488019.386182765068952, 2143086.669908198527992, 0.0 ], [ 487984.415484079450835, 2143091.314816228114069, 0.0 ], [ 487950.171636495681014, 2143096.111051591578871, 0.0 ], [ 487919.666170813783538, 2143100.352850087918341, 0.0 ], [ 487885.815713507938199, 2143105.567545718047768, 0.0 ], [ 487850.870795912574977, 2143108.110824394505471, 0.0 ], [ 487814.734215977136046, 2143112.052369409240782, 0.0 ], [ 487780.473546680936124, 2143116.906010656617582, 0.0 ], [ 487746.613551390939392, 2143119.130143762100488, 0.0 ], [ 487712.425840527925175, 2143122.06027365475893, 0.0 ], [ 487677.063282129645813, 2143125.363197214901447, 0.0 ], [ 487646.713644383242354, 2143123.692230051383376, 0.0 ], [ 487638.666527240129653, 2143123.24917803471908, 0.0 ], [ 487629.386403356445953, 2143123.804848085623235, 0.0 ], [ 487600.851603880117182, 2143125.513438798487186, 0.0 ], [ 487566.679480171529576, 2143130.136128786951303, 0.0 ], [ 487527.694785351108294, 2143132.904294795822352, 0.0 ], [ 487349.657901456463151, 2143138.837980379816145, 0.0 ], [ 487344.230789950001054, 2143139.014301965478808, 0.0 ], [ 487307.649168146075681, 2143141.548125736881047, 0.0 ], [ 487280.688177650910802, 2143143.64053594879806, 0.0 ], [ 487151.789885017613415, 2143153.036508780904114, 0.0 ], [ 487147.985432398214471, 2143038.907105409540236, 0.0 ], [ 487139.352837750280742, 2142897.42968188226223, 0.0 ], [ 487142.794678640027996, 2142631.872508770320565, 0.0 ], [ 487147.95100727584213, 2142397.901495549827814, 0.0 ], [ 487114.591545116913039, 2142403.664571531116962, 0.0 ], [ 487063.464554908394348, 2142412.850810090079904, 0.0 ], [ 487023.4572877411847, 2142421.17549790488556, 0.0 ], [ 486981.368615189858247, 2142429.568807503208518, 0.0 ], [ 486965.752097130287439, 2142432.895122583024204, 0.0 ], [ 486927.991366583912168, 2142440.746955327689648, 0.0 ], [ 486914.632218404265586, 2142443.163746126461774, 0.0 ], [ 486869.427958814543672, 2142451.534906710498035, 0.0 ], [ 486806.408014615240972, 2142464.337367555592209, 0.0 ], [ 486776.156624494877178, 2142470.328317729756236, 0.0 ], [ 486770.423842305026483, 2142471.454035378992558, 0.0 ], [ 486727.779831074527465, 2142479.827647955622524, 0.0 ], [ 486700.602444457006641, 2142485.164512552786618, 0.0 ], [ 486682.729174405918457, 2142488.674196820706129, 0.0 ], [ 486641.815800001844764, 2142496.708150654099882, 0.0 ], [ 486632.341011733748019, 2142498.568667233921587, 0.0 ], [ 486615.874638677632902, 2142501.802086206153035, 0.0 ], [ 486597.310603131598327, 2142505.471790261566639, 0.0 ], [ 486549.902703427360393, 2142514.754326124675572, 0.0 ], [ 486514.594342130119912, 2142521.667754726018757, 0.0 ], [ 486441.856993159046397, 2142536.442241298034787, 0.0 ], [ 486401.604140124458354, 2142544.618442995008081, 0.0 ], [ 486378.594120332505554, 2142548.023304019123316, 0.0 ], [ 486340.049912100133952, 2142552.687601040117443, 0.0 ], [ 486327.042136348434724, 2142554.041433109901845, 0.0 ], [ 486288.82452217489481, 2142558.019071760587394, 0.0 ], [ 486260.382917124137748, 2142561.543900760821998, 0.0 ], [ 486236.771651974879205, 2142564.4699328225106, 0.0 ], [ 486203.391000938951038, 2142568.74234320782125, 0.0 ], [ 486184.758442091639154, 2142571.070029463153332, 0.0 ], [ 486137.266040145070292, 2142576.968606343958527, 0.0 ], [ 486090.476560676528607, 2142582.856651544570923, 0.0 ], [ 486045.665862726105843, 2142586.443828038405627, 0.0 ], [ 485998.104542699235026, 2142590.836609346792102, 0.0 ], [ 485945.528784487163648, 2142594.884498096536845, 0.0 ], [ 485911.927040870417841, 2142596.159662439953536, 0.0 ], [ 485787.347659456019755, 2142583.314021400175989, 0.0 ], [ 485762.141654139501043, 2142578.724288403522223, 0.0 ], [ 485777.811063448607456, 2142662.190950414631516, 0.0 ], [ 485808.805252194113564, 2142809.607048817910254, 0.0 ], [ 485840.18650064279791, 2142958.36636955384165, 0.0 ], [ 485854.706758553686086, 2143036.124608354642987, 0.0 ], [ 485869.636155004671309, 2143110.939637264702469, 0.0 ], [ 485880.427718279592227, 2143169.693975177593529, 0.0 ], [ 485895.234621735406108, 2143244.256593722850084, 0.0 ], [ 485921.012676184123848, 2143385.009840574581176, 0.0 ], [ 485949.497985437104944, 2143519.307012912817299, 0.0 ], [ 485966.441233857069165, 2143600.058871722780168, 0.0 ], [ 485977.323452349111903, 2143651.923741384875029, 0.0 ], [ 485987.201744382793549, 2143699.003877654206008, 0.0 ], [ 486011.764229725056794, 2143816.07147553190589, 0.0 ], [ 486030.909414218040183, 2143907.390202727168798, 0.0 ], [ 486053.874110722506884, 2144016.927243519574404, 0.0 ], [ 486075.260443582839798, 2144122.52404444757849, 0.0 ], [ 486088.293605374055915, 2144121.196221612393856, 0.0 ], [ 486121.843398300406989, 2144269.111756362020969, 0.0 ], [ 486128.855670576507691, 2144306.783836359158158, 0.0 ], [ 486131.165082665160298, 2144319.190707253292203, 0.0 ], [ 486142.532705281802919, 2144371.860692049376667, 0.0 ], [ 486167.783050403988454, 2144492.758888672571629, 0.0 ], [ 486194.14780060260091, 2144608.56787544908002, 0.0 ], [ 486203.714793362829369, 2144656.033809455111623, 0.0 ], [ 486226.430693138099741, 2144714.954044240061194, 0.0 ], [ 486242.831184463866521, 2144751.723314130213112, 0.0 ], [ 486245.972930976073258, 2144836.193562364205718, 0.0 ], [ 486248.337950423010625, 2144960.40792587865144, 0.0 ], [ 486182.492229211144149, 2144962.157088164705783, 0.0 ], [ 486146.512476746051107, 2144962.157089009415358, 0.0 ], [ 486091.317643370246515, 2144965.134828758426011, 0.0 ], [ 486036.338431429234333, 2144967.916797518264502, 0.0 ], [ 485978.495118305960204, 2144969.518724761903286, 0.0 ], [ 485921.175607823068276, 2144971.23856815090403, 0.0 ], [ 485853.73452224873472, 2144974.841748691163957, 0.0 ], [ 485793.968840621644631, 2144978.034854783676565, 0.0 ], [ 485734.203159010328818, 2144981.227960885502398, 0.0 ], [ 485682.061672937183175, 2144984.013728441204876, 0.0 ], [ 485599.839891537849326, 2144988.406598490662873, 0.0 ], [ 485613.229916198994033, 2145084.792462091892958, 0.0 ], [ 485621.380030281201471, 2145143.459701650310308, 0.0 ], [ 485635.442266276979353, 2145244.684366635978222, 0.0 ], [ 485659.763917274365667, 2145413.088687187992036, 0.0 ], [ 485663.269337123434525, 2145437.360388512257487, 0.0 ], [ 485668.253156856109854, 2145472.116742768324912, 0.0 ], [ 485680.865790438314434, 2145471.342870496213436, 0.0 ], [ 485692.343958166486118, 2145470.638605544809252, 0.0 ], [ 485901.289939352485817, 2145457.818324924446642, 0.0 ], [ 485944.873792527476326, 2145455.070036475080997, 0.0 ], [ 485959.002072662580758, 2145454.18418690469116, 0.0 ], [ 486008.691170100413729, 2145451.150251544080675, 0.0 ], [ 486085.948531310830731, 2145445.719093409366906, 0.0 ], [ 486139.632443754584529, 2145441.894515623338521, 0.0 ], [ 486180.758441019570455, 2145438.964595498517156, 0.0 ], [ 486234.973373921995517, 2145436.262874806765467, 0.0 ], [ 486292.044270017708186, 2145439.258223054930568, 0.0 ], [ 486343.70204391470179, 2145447.865019469056278, 0.0 ], [ 486456.380856854899321, 2145480.044028758071363, 0.0 ], [ 486479.074428577034269, 2145486.524898023810238, 0.0 ], [ 486485.250497841218021, 2145488.482491321861744, 0.0 ], [ 486569.520409509714227, 2145515.19304265268147, 0.0 ], [ 486646.472943141649012, 2145539.963170594535768, 0.0 ], [ 486786.568044772546273, 2145570.200752805452794, 0.0 ], [ 486804.355155595985707, 2145574.039853671565652, 0.0 ], [ 487058.39422710594954, 2145622.492708244826645, 0.0 ], [ 487159.815119491133373, 2145641.67834340268746, 0.0 ], [ 487163.205999595928006, 2145632.130577529314905, 0.0 ], [ 487174.624628550140187, 2145613.863792577758431, 0.0 ], [ 487197.13065130013274, 2145613.968738880008459, 0.0 ], [ 487230.165969331166707, 2145608.095792468171567, 0.0 ], [ 487244.816582272120286, 2145605.491238616406918, 0.0 ], [ 487284.02501475304598, 2145613.968736991751939, 0.0 ], [ 487293.989561632333789, 2145638.571310105267912, 0.0 ], [ 487293.438549054379109, 2145655.790465726517141, 0.0 ], [ 487293.065461445541587, 2145667.449461983051151, 0.0 ], [ 487355.986316642316524, 2145678.766509315464646, 0.0 ], [ 487452.546768848551437, 2145697.318091636989266, 0.0 ], [ 487511.085191861784551, 2145706.544681586325169, 0.0 ], [ 487557.022484744724352, 2145709.70285427197814, 0.0 ], [ 487694.264021104376297, 2145709.511176142841578, 0.0 ], [ 487896.484441296954174, 2145710.85292301652953, 0.0 ], [ 487950.921028346463572, 2145716.41158859571442, 0.0 ], [ 487995.088946492178366, 2145724.452397896442562, 0.0 ], [ 488040.768802401027642, 2145732.558089983183891, 0.0 ], [ 488042.646175851870794, 2145726.484234013129026, 0.0 ], [ 488047.061525143042672, 2145712.199278792832047, 0.0 ], [ 488063.73333132249536, 2145706.610479114577174, 0.0 ] ] ] ] } }
]
}
